#cP2023  8 28  0  0  0.00000000      96 ORBIT IGS20 HLM  IGS
## 2277  86400.00000000   900.00000000 60184 0.0000000000000
+   32   G01G02G03G04G05G06G07G08G09G10G11G12G13G14G15G16G17
+        G18G19G20G21G22G23G24G25G26G27G28G29G30G31G32  0  0
+          0  0  0  0  0  0  0  0  0  0  0  0  0  0  0  0  0
+          0  0  0  0  0  0  0  0  0  0  0  0  0  0  0  0  0
+          0  0  0  0  0  0  0  0  0  0  0  0  0  0  0  0  0
++         2  2  2  3  2  2  2  2  2  2  2  2  2  2  2  2  2
++         2  2  2  2  2  2  2  2  2  2  2  2  2  2  2  0  0
++         0  0  0  0  0  0  0  0  0  0  0  0  0  0  0  0  0
++         0  0  0  0  0  0  0  0  0  0  0  0  0  0  0  0  0
++         0  0  0  0  0  0  0  0  0  0  0  0  0  0  0  0  0
%c G  cc GPS ccc cccc cccc cccc cccc ccccc ccccc ccccc ccccc
%c cc cc ccc ccc cccc cccc cccc cccc ccccc ccccc ccccc ccccc
%f  1.2500000  1.025000000  0.00000000000  0.000000000000000
%f  0.0000000  0.000000000  0.00000000000  0.000000000000000
%i    0    0    0    0      0      0      0      0         0
%i    0    0    0    0      0      0      0      0         0
/* RAPID ORBIT COMBINATION FROM WEIGHTED AVERAGE OF:        
/* cod emr esa gfz grg jgx jpl ngs sio usn whu              
/* REFERENCED TO IGS TIME (IGST) AND TO WEIGHTED MEAN POLE: 
/* PCV:IGS20      OL/AL:FES2014b NONE     Y  ORB:CMB CLK:CMB
*  2023  8 28  5 15  0.00000000
PG01  12502.642940 -20989.601755 -10326.851122    167.097766  6  7  3 102       
PG02  16416.195832 -20636.594709  -1742.099242   -560.585974  4  4  1  84       
PG03   4454.869835 -14180.490085 -22155.322446   -165.460654  6  6  5  89       
PG04   1657.514341 -24562.569932  -9799.616592    138.855957  7 10  7  96       
PG05 -19799.414312   6847.997671  16203.555776   -140.497717  4  6  5  96       
PG06 -17570.372414  -1273.659943 -19846.903730    559.855637  6  6  5 104       
PG07  -3084.104432 -17224.400327  20319.184106     83.389631  4  5  3  85       
PG08   8345.828755 -17290.584889  18105.513702   -139.355993  6  5  4  99       
PG09  -6190.102417 -25772.849277  -1295.846978    -75.162573  5  8  3  88       
PG10  23330.723194  11276.568110   6739.453845    -51.059932  6  5  4  75       
PG11 -22269.064064  10337.865304 -10056.064951   -341.232834  7  6  7 100       
PG12  -9568.536576  12517.372897 -21646.691593   -418.072038  7  7  3  89       
PG13 -13412.821245   8905.140163  20892.152172    565.535385  4 10  8 120       
PG14 -21001.555555 -13575.367787   9215.148210    167.474478  5  7  6  95       
PG15  -5770.237694  19040.579714  17002.534905     71.959146  5  7  2 101       
PG16  23217.714540   -790.748039  12969.503875   -462.332027  3  5  3  86       
PG17 -12945.323649 -18293.794326 -13732.642076    723.246307  1  6  6  95       
PG18   4440.248300  15472.234964  21093.673436   -397.804630  5  6  6  85       
PG19 -14913.419747 -10927.448025 -19398.202517    363.637214  4  5  7 106       
PG20 -25531.458572   2094.255889   6665.625293    414.901182  4  7  7 105       
PG21  17441.377606 -19363.316603    795.905087    149.986164  4  5  2  90       
PG22 -23891.921831 -11063.780709   2508.149347    133.105326  5  6  5  75       
PG23  13978.200859  15249.023695  16761.043256     60.668944  5  7  4  88       
PG24 -13865.873220  21893.576349  -5045.313031   -302.832843  4  4  6  93       
PG25   6139.867838  16563.730773 -20224.287111    464.631502  8  7  6  46       
PG26  26378.989285   3710.340649   2342.979661    231.134462  2  2  3  57       
PG27  14240.296076  -4680.959074  21661.595880    -29.707216  3  5  2 103       
PG28  16763.646826   3082.860340 -20391.486196     -2.626210  2  5  5  79       
PG29   3722.938660  26216.533085  -1183.478985   -608.527133  4  9  4  92       
PG30 -12155.024417 -10222.519557  21421.976072   -492.805972  5  3  3  84       
PG31  21720.444727  -6179.554593 -14492.915782   -222.524531  5  5  4  91       
PG32  15488.845549  14018.813529 -16338.162331   -548.303527  6  7  6  76       
*  2023  8 28  5 30  0.00000000
PG01  13325.447072 -21567.986423  -7644.019043    167.096681  6  7  3  96       
PG02  16666.344948 -20547.506574   1137.620636   -560.581856  4  4  1  85       
PG03   6861.509212 -13559.285921 -21917.162614   -165.443626  5  6  5  86       
PG04   2180.568084 -23386.870945 -12271.362575    138.866204  7 10  7  97       
PG05 -21493.930026   6337.562949  14154.203236   -140.498616  4  5  5 100       
PG06 -15976.429057  -2985.704471 -20966.919914    559.850341  7  6  5  98       
PG07  -1471.464963 -18698.747870  19090.024982     83.379929  4  5  3  70       
PG08   9152.193983 -15259.620538  19517.391607   -139.357550  5  5  5  95       
PG09  -5844.668823 -25564.417070  -4124.580691    -75.153640  4  9  3  89       
PG10  22425.739232  11218.994514   9414.892412    -51.061077  6  5  4  77       
PG11 -21470.515915   9298.587523 -12509.942615   -341.248833  7  6  7 106       
PG12 -11815.078239  11728.064386 -20952.631732   -418.076188  6  6  3  84       
PG13 -13820.282153   6470.263579  21526.313683    565.539866  4 10  8 124       
PG14 -19789.822501 -13490.199115  11681.233763    167.484791  6  7  6  89       
PG15  -6831.952970  17177.501381  18508.355587     71.962429  6  6  3 103       
PG16  24458.404771   -167.824214  10586.762492   -462.326961  2  6  3  87       
PG17 -13077.480159 -19802.843650 -11376.882616    723.246933     6  6  97       
PG18   2716.301032  17082.390981  20105.395292   -397.816386  4  8  5  84       
PG19 -15177.666134 -12993.498165 -17870.983242    363.641957  4  6  7 110       
PG20 -26113.728119   1758.372754   3908.523746    414.899357  4  7  7  81       
PG21  17559.568632 -19002.475948   3692.531149    149.985746  4  5  2  71       
PG22 -23427.057264 -11179.607655   5337.973457    133.098520  5  5  5  83       
PG23  11992.489080  14939.007805  18475.495954     60.673399  4  7  4  89       
PG24 -14384.232859  21970.437451  -2261.014520   -302.842806  4  4  6  90       
PG25   3884.810195  16111.406166 -21118.879389    464.633412  8  7  6  49       
PG26  26445.882346   4033.950786   -432.724952    231.132978  2  3  4  83       
PG27  14959.576042  -2257.594415  21601.965722    -29.713122  3  5    103       
PG28  15229.598975   4899.182717 -21223.358451     -2.629973  3  5  5  65       
PG29   3448.276763  25972.348425  -4053.885764   -608.527856  4  9  3  93       
PG30 -10446.936525 -11955.941524  21402.054672   -492.803030  5  2  3  94       
PG31  20608.707536  -4845.708896 -16474.011007   -222.524898  6  5  4  94       
PG32  15829.072014  15771.414834 -14329.938975   -548.309409  6  7  6  74       
*  2023  8 28  5 45  0.00000000
PG01  13910.266900 -21956.622844  -4828.465665    167.095618  6  6  4  89       
PG02  16726.482890 -20209.924529   3997.635117   -560.578210  4  5  1  82       
PG03   9253.158642 -13081.059966 -21306.520308   -165.426601  5  5  5  84       
PG04   2844.640901 -21984.111074 -14530.501135    138.876446  6 10  8  91       
PG05 -22967.085268   5952.684688  11859.717504   -140.500284  4  5  6  79       
PG06 -14411.144651  -4866.605290 -21724.876825    559.845071  7  6  5 100       
PG07    -31.991909 -20139.188100  17539.765821     83.370432  4  6  3  48       
PG08  10110.190647 -13142.874943  20587.728719   -139.358948  5  5  4  89       
PG09  -5377.840283 -25078.125429  -6882.224997    -75.144703  4  9  4  87       
PG10  21232.684510  11159.069804  11932.330809    -51.062412  6  5  4  75       
PG11 -20545.185444   8025.274443 -14747.837362   -341.264818  6  6  6 113       
PG12 -14007.668791  11083.426833 -19906.078981   -418.079783  6  6  3 103       
PG13 -14365.970813   4012.177688  21782.742319    565.543425  4 10  7 121       
PG14 -18314.642632 -13409.469773  13948.232945    167.495169  6  7  5 100       
PG15  -8050.406183  15228.455427  19680.856263     71.965613  6  5  3 100       
PG16  25459.536712    309.932451   8023.649311   -462.322274  1  6  2  89       
PG17 -13214.008860 -21028.717764  -8819.842090    723.247114     6  7  95       
PG18   1168.239523  18685.508601  18769.669929   -397.828065  4  9  5  80       
PG19 -15511.176388 -14858.392679 -16044.594355    363.646700  3  6  7  95       
PG20 -26395.301442   1456.195875   1083.413624    414.897662  3  7  7 101       
PG21  17500.164588 -18383.557306   6522.527520    149.985991  4  5  2  92       
PG22 -22667.468524 -11230.090654   8075.353219    133.092052  5  4  5  88       
PG23   9817.656901  14710.896333  19873.960525     60.677864  4  8  4  84       
PG24 -14716.284483  21810.327718    563.064434   -302.852859  4  5  6  83       
PG25   1529.001658  15762.604718 -21661.504148    464.635351  7  7  6  66       
PG26  26220.574938   4317.326057  -3201.152053    231.131471  2  3  4  66       
PG27  15793.798181     93.720882  21162.686037    -29.719058  3  5    100       
PG28  13746.842798   6850.620629 -21690.762497     -2.633740  4  5  6  76       
PG29   3077.158633  25432.331473  -6854.141758   -608.528359  4  9  2  94       
PG30  -8837.762749 -13754.862449  21017.503144   -492.800073  5  1  2  79       
PG31  19430.123206  -3301.145698 -18179.898510   -222.525253  5  5  4  87       
PG32  16178.150581  17274.372727 -12074.666509   -548.315287  5  8  5  47       
EOF
